{
  "last_updated": "2026-01-27T06:00:02.929180",
  "satellites": {
    "98592": {
      "name": "DUTHSat-2",
      "norad_id": "98592",
      "tle": "1 64530U 25135C   26026.73266381  .00019838  00000-0  84798-3 0  9994\n2 64530  97.4479 143.2470 0004550 334.6625  25.4387 15.22877698 33374",
      "epoch": "2026-01-26T17:35:02.153184",
      "fetched_at": "2026-01-27T06:00:03.044713",
      "source": "satnogs"
    },
    "98530": {
      "name": "LAMARR",
      "norad_id": "98530",
      "tle": "1 66673U 25276H   26026.51379688  .00023020  00000-0  11163-2 0  9994\n2 66673  97.4305 102.4456 0007609 143.0461 217.1299 15.18490233  8916",
      "epoch": "2026-01-26T12:19:52.050432",
      "fetched_at": "2026-01-27T06:00:03.089497",
      "source": "satnogs"
    },
    "98529": {
      "name": "DIRAC",
      "norad_id": "98529",
      "tle": "1 66681U 25276R   26026.63281774  .00024563  00000-0  11745-2 0  9993\n2 66681  97.4280 102.5712 0006320 148.4115 211.7500 15.18972786  8932",
      "epoch": "2026-01-26T15:11:15.452736",
      "fetched_at": "2026-01-27T06:00:03.134257",
      "source": "satnogs"
    },
    "98518": {
      "name": "MICE-1",
      "norad_id": "98518",
      "tle": "1 66684U 25276U   26026.64548828  .00006284  00000-0  31258-3 0  9995\n2 66684  97.4421 102.6603 0006950 120.8098 239.3820 15.17950119  8931",
      "epoch": "2026-01-26T15:29:30.187392",
      "fetched_at": "2026-01-27T06:00:03.180195",
      "source": "satnogs"
    }
  },
  "fetch_log": [
    {
      "norad_id": "98592",
      "name": "DUTHSat-2",
      "status": "success",
      "source": "satnogs",
      "timestamp": "2026-01-27T06:00:03.044716"
    },
    {
      "norad_id": "98530",
      "name": "LAMARR",
      "status": "success",
      "source": "satnogs",
      "timestamp": "2026-01-27T06:00:03.089501"
    },
    {
      "norad_id": "98529",
      "name": "DIRAC",
      "status": "success",
      "source": "satnogs",
      "timestamp": "2026-01-27T06:00:03.134267"
    },
    {
      "norad_id": "98518",
      "name": "MICE-1",
      "status": "success",
      "source": "satnogs",
      "timestamp": "2026-01-27T06:00:03.180198"
    }
  ]
}